{"type": "FeatureCollection", "features": [ {"type": "Feature", "properties": {"norad_id": 33779, "name": "COSMOS 2251 DEB", "group": "cosmos-2251-debris", "lat": 51.43161438223758, "lon": -12.542755678287623, "alt_km": 657.2002251210488, "timestamp": "2025-12-03T13:52:09.959209+00:00", "meta": {"OBJECT_NAME": "COSMOS 2251 DEB", "OBJECT_ID": "1993-036U", "EPOCH": "2025-12-03T00:55:01.811424", "MEAN_MOTION": 14.70149836, "ECCENTRICITY": 0.00177845, "INCLINATION": 74.0444, "RA_OF_ASC_NODE": 189.529, "ARG_OF_PERICENTER": 224.8407, "MEAN_ANOMALY": 285.7962, "EPHEMERIS_TYPE": 0, "CLASSIFICATION_TYPE": "U", "NORAD_CAT_ID": 33779, "ELEMENT_SET_NO": 999, "REV_AT_EPOCH": 88385, "BSTAR": 0.0015950222, "MEAN_MOTION_DOT": 9.604e-05, "MEAN_MOTION_DDOT": 0}, "tle": {"line1": "1 33779U 93036U   25337.03821541  .00009604  00000+0  15950-2 0  9994", "line2": "2 33779  74.0444 189.5290 0017784 224.8407 285.7962 14.70149836883856"}}, "geometry": {"type": "Point", "coordinates": [-12.542755678287623, 51.43161438223758]}}, {"type": "Feature", "properties": {"norad_id": 33782, "name": "COSMOS 2251 DEB", "group": "cosmos-2251-debris", "lat": 27.66273328334489, "lon": 105.85913553335412, "alt_km": 768.2197618651871, "timestamp": "2025-12-03T13:52:09.959219+00:00", "meta": {"OBJECT_NAME": "COSMOS 2251 DEB", "OBJECT_ID": "1993-036X", "EPOCH": "2025-12-02T22:25:33.716928", "MEAN_MOTION": 14.40400246, "ECCENTRICITY": 0.00203224, "INCLINATION": 74.0326, "RA_OF_ASC_NODE": 295.6803, "ARG_OF_PERICENTER": 2.2173, "MEAN_ANOMALY": 53.3366, "EPHEMERIS_TYPE": 0, "CLASSIFICATION_TYPE": "U", "NORAD_CAT_ID": 33782, "ELEMENT_SET_NO": 999, "REV_AT_EPOCH": 87985, "BSTAR": 0.00059932666, "MEAN_MOTION_DOT": 1.882e-05, "MEAN_MOTION_DDOT": 0}, "tle": {"line1": "1 33782U 93036X   25336.93441802  .00001882  00000+0  59933-3 0  9994", "line2": "2 33782  74.0326 295.6803 0020322   2.2173  53.3366 14.40400246879852"}}, "geometry": {"type": "Point", "coordinates": [105.85913553335412, 27.66273328334489]}}, {"type": "Feature", "properties": {"norad_id": 33785, "name": "COSMOS 2251 DEB", "group": "cosmos-2251-debris", "lat": 71.89124172904506, "lon": -164.37919178693375, "alt_km": 650.380082833577, "timestamp": "2025-12-03T13:52:09.959230+00:00", "meta": {"OBJECT_NAME": "COSMOS 2251 DEB", "OBJECT_ID": "1993-036AA", "EPOCH": "2025-12-03T08:48:22.547232", "MEAN_MOTION": 14.70113761, "ECCENTRICITY": 0.00213406, "INCLINATION": 73.8675, "RA_OF_ASC_NODE": 78.2969, "ARG_OF_PERICENTER": 20.2137, "MEAN_ANOMALY": 41.7886, "EPHEMERIS_TYPE": 0, "CLASSIFICATION_TYPE": "U", "NORAD_CAT_ID": 33785, "ELEMENT_SET_NO": 999, "REV_AT_EPOCH": 88369, "BSTAR": 0.002711171, "MEAN_MOTION_DOT": 0.00016367, "MEAN_MOTION_DDOT": 0}, "tle": {"line1": "1 33785U 93036AA  25337.36692763  .00016367  00000+0  27112-2 0  9996", "line2": "2 33785  73.8675  78.2969 0021340  20.2137  41.7886 14.70113761883699"}}, "geometry": {"type": "Point", "coordinates": [-164.37919178693375, 71.89124172904506]}}, {"type": "Feature", "properties": {"norad_id": 33789, "name": "COSMOS 2251 DEB", "group": "cosmos-2251-debris", "lat": 71.92913016228589, "lon": 164.07996541883415, "alt_km": 1056.9641316727693, "timestamp": "2025-12-03T13:52:09.959241+00:00", "meta": {"OBJECT_NAME": "COSMOS 2251 DEB", "OBJECT_ID": "1993-036AE", "EPOCH": "2025-12-03T08:25:27.280416", "MEAN_MOTION": 13.88759571, "ECCENTRICITY": 0.02404951, "INCLINATION": 74.0635, "RA_OF_ASC_NODE": 103.3395, "ARG_OF_PERICENTER": 221.0278, "MEAN_ANOMALY": 168.3273, "EPHEMERIS_TYPE": 0, "CLASSIFICATION_TYPE": "U", "NORAD_CAT_ID": 33789, "ELEMENT_SET_NO": 999, "REV_AT_EPOCH": 84965, "BSTAR": 0.0010942945, "MEAN_MOTION_DOT": 1.639e-05, "MEAN_MOTION_DDOT": 0}, "tle": {"line1": "1 33789U 93036AE  25337.35101019  .00001639  00000+0  10943-2 0  9998", "line2": "2 33789  74.0635 103.3395 0240495 221.0278 168.3273 13.88759571849653"}}, "geometry": {"type": "Point", "coordinates": [164.07996541883415, 71.92913016228589]}}, {"type": "Feature", "properties": {"norad_id": 33791, "name": "COSMOS 2251 DEB", "group": "cosmos-2251-debris", "lat": -30.8873457916113, "lon": 44.68483016658228, "alt_km": 748.2910873907213, "timestamp": "2025-12-03T13:52:09.959252+00:00", "meta": {"OBJECT_NAME": "COSMOS 2251 DEB", "OBJECT_ID": "1993-036AG", "EPOCH": "2025-12-03T07:41:18.683232", "MEAN_MOTION": 14.4304624, "ECCENTRICITY": 0.00306003, "INCLINATION": 74.176, "RA_OF_ASC_NODE": 54.9263, "ARG_OF_PERICENTER": 253.6826, "MEAN_ANOMALY": 176.4792, "EPHEMERIS_TYPE": 0, "CLASSIFICATION_TYPE": "U", "NORAD_CAT_ID": 33791, "ELEMENT_SET_NO": 999, "REV_AT_EPOCH": 87916, "BSTAR": 0.00096945187, "MEAN_MOTION_DOT": 3.243e-05, "MEAN_MOTION_DDOT": 0}, "tle": {"line1": "1 33791U 93036AG  25337.32035513  .00003243  00000+0  96945-3 0  9993", "line2": "2 33791  74.1760  54.9263 0030600 253.6826 176.4792 14.43046240879165"}}, "geometry": {"type": "Point", "coordinates": [44.68483016658228, -30.8873457916113]}}, {"type": "Feature", "properties": {"norad_id": 33792, "name": "COSMOS 2251 DEB", "group": "cosmos-2251-debris", "lat": -22.57496445206003, "lon": -6.920594621402893, "alt_km": 1077.907753278976, "timestamp": "2025-12-03T13:52:09.959262+00:00", "meta": {"OBJECT_NAME": "COSMOS 2251 DEB", "OBJECT_ID": "1993-036AH", "EPOCH": "2025-12-03T08:42:21.985344", "MEAN_MOTION": 13.45802233, "ECCENTRICITY": 0.04268175, "INCLINATION": 73.9011, "RA_OF_ASC_NODE": 0.3185, "ARG_OF_PERICENTER": 66.7249, "MEAN_ANOMALY": 312.7767, "EPHEMERIS_TYPE": 0, "CLASSIFICATION_TYPE": "U", "NORAD_CAT_ID": 33792, "ELEMENT_SET_NO": 999, "REV_AT_EPOCH": 82316, "BSTAR": 0.00085046881, "MEAN_MOTION_DOT": 8.61e-06, "MEAN_MOTION_DDOT": 0}, "tle": {"line1": "1 33792U 93036AH  25337.36275446  .00000861  00000+0  85047-3 0  9993", "line2": "2 33792  73.9011   0.3185 0426817  66.7249 312.7767 13.45802233823160"}}, "geometry": {"type": "Point", "coordinates": [-6.920594621402893, -22.57496445206003]}}, {"type": "Feature", "properties": {"norad_id": 33793, "name": "COSMOS 2251 DEB", "group": "cosmos-2251-debris", "lat": -1.2337354928180206, "lon": 166.21368338439956, "alt_km": 759.3384565383776, "timestamp": "2025-12-03T13:52:09.959273+00:00", "meta": {"OBJECT_NAME": "COSMOS 2251 DEB", "OBJECT_ID": "1993-036AJ", "EPOCH": "2025-12-03T06:18:47.534688", "MEAN_MOTION": 14.27672707, "ECCENTRICITY": 0.00781733, "INCLINATION": 73.9798, "RA_OF_ASC_NODE": 167.1402, "ARG_OF_PERICENTER": 319.0997, "MEAN_ANOMALY": 221.6233, "EPHEMERIS_TYPE": 0, "CLASSIFICATION_TYPE": "U", "NORAD_CAT_ID": 33793, "ELEMENT_SET_NO": 999, "REV_AT_EPOCH": 87071, "BSTAR": 0.00085188978, "MEAN_MOTION_DOT": 2.143e-05, "MEAN_MOTION_DDOT": 0}, "tle": {"line1": "1 33793U 93036AJ  25337.26305017  .00002143  00000+0  85189-3 0  9993", "line2": "2 33793  73.9798 167.1402 0078173 319.0997 221.6233 14.27672707870710"}}, "geometry": {"type": "Point", "coordinates": [166.21368338439956, -1.2337354928180206]}}, {"type": "Feature", "properties": {"norad_id": 33795, "name": "COSMOS 2251 DEB", "group": "cosmos-2251-debris", "lat": -74.02115122170484, "lon": 5.288316807753524, "alt_km": 557.9698104851905, "timestamp": "2025-12-03T13:52:09.959284+00:00", "meta": {"OBJECT_NAME": "COSMOS 2251 DEB", "OBJECT_ID": "1993-036AL", "EPOCH": "2025-12-03T08:01:45.886368", "MEAN_MOTION": 15.0489271, "ECCENTRICITY": 0.0033252, "INCLINATION": 74.0317, "RA_OF_ASC_NODE": 96.0126, "ARG_OF_PERICENTER": 182.238, "MEAN_ANOMALY": 209.5862, "EPHEMERIS_TYPE": 0, "CLASSIFICATION_TYPE": "U", "NORAD_CAT_ID": 33795, "ELEMENT_SET_NO": 999, "REV_AT_EPOCH": 89880, "BSTAR": 0.0020786013, "MEAN_MOTION_DOT": 0.00029866, "MEAN_MOTION_DDOT": 0}, "tle": {"line1": "1 33795U 93036AL  25337.33455887  .00029866  00000+0  20786-2 0  9996", "line2": "2 33795  74.0317  96.0126 0033252 182.2380 209.5862 15.04892710898806"}}, "geometry": {"type": "Point", "coordinates": [5.288316807753524, -74.02115122170484]}}, {"type": "Feature", "properties": {"norad_id": 33797, "name": "COSMOS 2251 DEB", "group": "cosmos-2251-debris", "lat": -31.009255305651394, "lon": -117.72965601079802, "alt_km": 690.4868288638572, "timestamp": "2025-12-03T13:52:09.959294+00:00", "meta": {"OBJECT_NAME": "COSMOS 2251 DEB", "OBJECT_ID": "1993-036AN", "EPOCH": "2025-12-03T04:48:16.773696", "MEAN_MOTION": 14.57779785, "ECCENTRICITY": 0.00612348, "INCLINATION": 74.0486, "RA_OF_ASC_NODE": 53.0883, "ARG_OF_PERICENTER": 143.7689, "MEAN_ANOMALY": 246.5183, "EPHEMERIS_TYPE": 0, "CLASSIFICATION_TYPE": "U", "NORAD_CAT_ID": 33797, "ELEMENT_SET_NO": 999, "REV_AT_EPOCH": 88846, "BSTAR": 0.00069900585, "MEAN_MOTION_DOT": 3.251e-05, "MEAN_MOTION_DDOT": 0}, "tle": {"line1": "1 33797U 93036AN  25337.20019414  .00003251  00000+0  69901-3 0  9999", "line2": "2 33797  74.0486  53.0883 0061234 143.7689 246.5183 14.57779785888464"}}, "geometry": {"type": "Point", "coordinates": [-117.72965601079802, -31.009255305651394]}}, {"type": "Feature", "properties": {"norad_id": 33798, "name": "COSMOS 2251 DEB", "group": "cosmos-2251-debris", "lat": 13.956691059391945, "lon": -31.111381764759795, "alt_km": 767.0072072729672, "timestamp": "2025-12-03T13:52:09.959304+00:00", "meta": {"OBJECT_NAME": "COSMOS 2251 DEB", "OBJECT_ID": "1993-036AP", "EPOCH": "2025-12-03T05:37:08.661792", "MEAN_MOTION": 14.44595822, "ECCENTRICITY": 0.00924861, "INCLINATION": 74.0276, "RA_OF_ASC_NODE": 153.6105, "ARG_OF_PERICENTER": 277.0325, "MEAN_ANOMALY": 262.2793, "EPHEMERIS_TYPE": 0, "CLASSIFICATION_TYPE": "U", "NORAD_CAT_ID": 33798, "ELEMENT_SET_NO": 999, "REV_AT_EPOCH": 88456, "BSTAR": 0.00022994884, "MEAN_MOTION_DOT": 8.09e-06, "MEAN_MOTION_DDOT": 0}, "tle": {"line1": "1 33798U 93036AP  25337.23412803  .00000809  00000+0  22995-3 0  9990", "line2": "2 33798  74.0276 153.6105 0092486 277.0325 262.2793 14.44595822884560"}}, "geometry": {"type": "Point", "coordinates": [-31.111381764759795, 13.956691059391945]}}]}